satname,norad_id,inclination_deg,eccentricity,mean_motion_rev_per_day,perigee_km,apogee_km,l1,l2
STARLINK-1433,45711,53.0544,0.000251,15.06385234,545.5185401239496,548.9950878185637,1 45711U 20035BG  25291.30144956 -.00007691  00000+0 -49815-3 0  9993,2 45711  53.0544 315.8253 0002510 124.2770 235.8457 15.06385234297682
STARLINK-1434,45712,53.0514,0.0003269,15.14075424,521.530683024338,526.043160884512,1 45712U 20035BH  25291.27221779  .00052715  00000+0  28591-2 0  9991,2 45712  53.0514 312.8968 0003269   9.6620 350.4435 15.14075424297734
STARLINK-1465,45731,53.0533,0.000172,15.06413194,545.9799675269778,548.3622735204381,1 45731U 20038B   25290.93654488  .00005053  00000+0  35774-3 0  9999,2 45731  53.0533 157.4630 0001720  80.6420 279.4763 15.06413194294677
STARLINK-1471,45735,53.0498,0.0002881,15.4015028,443.6994565507239,447.6313314901581,1 45735U 20038F   25291.25430812  .00026945  00000+0  66939-3 0  9992,2 45735  53.0498  99.5116 0002881 131.8954 228.2296 15.40150280295526
STARLINK-1474,45738,53.0378,0.0003226,15.64348413,372.9347659959885,377.2919631312052,1 45738U 20038J   25290.35513332  .00088018  00000+0  89853-3 0  9993,2 45738  53.0378  63.6792 0003226 235.2165 124.8546 15.64348413295943
STARLINK-1475,45739,53.0524,0.0004152,15.70877789,353.5908813115102,359.18323008736206,1 45739U 20038K   25291.33336806  .00143221  00000+0  11109-2 0  9998,2 45739  53.0524  26.1543 0004152 296.0338 154.0193 15.70877789  5954
STARLINK-1480,45741,53.0518,0.0001581,15.06416778,546.0652467847804,548.2550257392668,1 45741U 20038M   25291.05080715  .00005175  00000+0  36591-3 0  9993,2 45741  53.0518 156.9505 0001581  86.8142 273.3028 15.06416778294702
STARLINK-1500,45744,53.0377,0.0004708,15.26797904,482.1606230047928,488.6233218852467,1 45744U 20038Q   25291.27890530  .00022521  00000+0  85406-3 0  9997,2 45744  53.0377 136.6667 0004708 143.2628 216.8693 15.26797904295002
STARLINK-1504,45746,53.0279,0.000552,15.38514687,446.7313798743389,454.27019599221785,1 45746U 20038S   25291.26267619  .00112729  00000+0  28880-2 0  9996,2 45746  53.0279 102.5234 0005520 145.1903 214.9462 15.38514687295479
STARLINK-1506,45747,53.0507,0.0003932,15.20844076,500.58750522470746,505.99906199973975,1 45747U 20038T   25291.05113965  .00019135  00000+0  86820-3 0  9994,2 45747  53.0507 139.6290 0003932 164.3558 195.7559 15.20844076294944
STARLINK-1464,45751,53.0527,0.000146,15.06426166,546.1202748965152,548.1424532588262,1 45751U 20038X   25291.05265205  .00007584  00000+0  52713-3 0  9993,2 45751  53.0527 136.9413 0001460  84.5841 275.5315 15.06426166294981
STARLINK-1477,45754,53.0523,0.0001194,15.06392096,546.4088931555634,548.0626721760636,1 45754U 20038AA  25291.26643243 -.00004086  00000+0 -25563-3 0  9990,2 45754  53.0523 135.9806 0001194  90.6146 269.4980 15.06392096295014
STARLINK-1478,45755,53.053,0.0001421,15.06395877,546.2401005425572,548.2082881939969,1 45755U 20038AB  25291.28487197  .00000362  00000+0  43220-4 0  9999,2 45755  53.0530 135.8988 0001421  86.8455 273.2697 15.06395877295003
STARLINK-1484,45756,53.0174,0.000159,15.5765646,393.36476447147834,395.51844446769974,1 45756U 20038AC  25291.31447681  .00065946  00000+0  87481-3 0  9993,2 45756  53.0174  46.4165 0001590 206.8633 153.2295 15.57656460296265
STARLINK-1493,45759,53.0516,0.0001414,15.06403932,546.2202643687206,548.1787495328854,1 45759U 20038AF  25291.27381548  .00002640  00000+0  19602-3 0  9992,2 45759  53.0516 135.9479 0001414  91.4537 268.6614 15.06403932295001
STARLINK-1494,45760,53.054,4.87e-05,15.50162047,415.9216378210085,416.5834113607043,1 45760U 20038AG  25291.26012035  .00041448  00000+0  72713-3 0  9996,2 45760  53.0540 125.2738 0000487  75.6411 284.4651 15.50162047295166
STARLINK-1502,45764,53.0526,0.0001287,15.06407752,546.296509974989,548.0790885783235,1 45764U 20038AL  25291.04160288  .00005840  00000+0  41054-3 0  9990,2 45764  53.0526 136.9898 0001287  83.2489 276.8646 15.06407752294983
STARLINK-1470,45772,53.0501,0.0004743,15.16636394,512.7451789347278,519.2849715933235,1 45772U 20038AU  25291.19157072  .00053497  00000+0  26979-2 0  9991,2 45772  53.0501 109.7986 0004743 156.4190 203.7022 15.16636394295371
STARLINK-1482,45773,53.0532,0.0001474,15.06403488,546.1800729395636,548.2216625429728,1 45773U 20038AV  25291.00657767  .00002233  00000+0  16873-3 0  9993,2 45773  53.0532 117.1477 0001474  95.5332 264.5825 15.06403488295251
STARLINK-1485,45774,53.0414,0.0004975,15.9607473,282.0063723661324,288.63651351685894,1 45774U 20038AW  25291.33336806  .00568398  14563-3  13541-2 0  9998,2 45774  53.0414  52.3235 0004975 323.8977 161.6042 15.96074730  5940
STARLINK-1496,45780,53.053,0.0001286,15.06399048,546.3238754829281,548.105075882474,1 45780U 20038BC  25291.23879616  .00000732  00000+0  68019-4 0  9997,2 45780  53.0530 116.1047 0001286  89.6241 270.4895 15.06399048295274
STARLINK-1497,45781,53.0409,0.0007612,15.49862701,411.9548029232883,422.2999133821395,1 45781U 20038BD  25291.33336806  .00202471  00000+0  34833-2 0  9997,2 45781  53.0409  65.3268 0007612 190.1359   8.0734 15.49862701  5866
STARLINK-1510,45784,53.0343,0.0003417,15.64762362,371.6151106872094,376.22946800554837,1 45784U 20038BG  25291.33336806  .00225963  00000+0  22227-2 0  9995,2 45784  53.0343  42.9889 0003417 123.9486 311.4939 15.64762362  5889
STARLINK-1513,45786,53.0537,0.0001503,15.06410365,546.138915774588,548.2206660019301,1 45786U 20038BJ  25291.00288242  .00003402  00000+0  24711-3 0  9994,2 45786  53.0537 117.1653 0001503  91.8096 268.3066 15.06410365295256
STARLINK-1522,46027,53.0552,0.0001352,15.06399215,546.2776564009491,548.1502713015734,1 46027U 20055A   25291.31526870  .00000564  00000+0  56729-4 0  9999,2 46027  53.0552  45.7599 0001352  92.5235 267.5909 15.06399215287429
STARLINK-1523,46028,53.0579,0.0001619,15.0639764,546.0975759052535,548.3400061103821,1 46028U 20055B   25291.06463623  .00000860  00000+0  76660-4 0  9993,2 46028  53.0579  46.8890 0001619  85.3343 274.7831 15.06397640287403
STARLINK-1526,46029,53.0535,7.36e-05,15.06402558,546.6940129709428,547.7134231246382,1 46029U 20055C   25290.59281731  .00002151  00000+0  16322-3 0  9992,2 46029  53.0535  48.9993 0000736 104.8344 255.2726 15.06402558287323
STARLINK-1555,46032,53.055,0.0001322,15.06393197,546.3168743961642,548.1479420677006,1 46032U 20055F   25291.30790174  .00003608  00000+0  26106-3 0  9991,2 46032  53.0550  45.7916 0001322  89.4347 270.6794 15.06393197287433
